{"fetched_at":"2026-07-12T05:52:33.815Z","source":"https://celestrak.org/NORAD/elements/gp.php?GROUP=oneweb&FORMAT=JSON","constellation":"oneweb","records":[{"OBJECT_NAME":"ONEWEB-0340","OBJECT_ID":"2021-083W","EPOCH":"2026-07-11T20:51:44.177184","CLASSIFICATION_TYPE":"U","MEAN_MOTION":13.18687466,"ECCENTRICITY":0.0001907,"INCLINATION":87.9195,"RA_OF_ASC_NODE":330.5474,"ARG_OF_PERICENTER":92.1726,"MEAN_ANOMALY":267.9624,"EPHEMERIS_TYPE":0,"NORAD_CAT_ID":49206,"ELEMENT_SET_NO":999,"REV_AT_EPOCH":23322,"BSTAR":0.00015587,"MEAN_MOTION_DOT":7.4e-7,"MEAN_MOTION_DDOT":0},{"OBJECT_NAME":"ONEWEB-0341","OBJECT_ID":"2021-083X","EPOCH":"2026-07-11T19:12:10.780128","CLASSIFICATION_TYPE":"U","MEAN_MOTION":13.18687393,"ECCENTRICITY":0.0002238,"INCLINATION":87.9172,"RA_OF_ASC_NODE":330.5622,"ARG_OF_PERICENTER":91.0803,"MEAN_ANOMALY":269.0586,"EPHEMERIS_TYPE":0,"NORAD_CAT_ID":49207,"ELEMENT_SET_NO":999,"REV_AT_EPOCH":23323,"BSTAR":0.0000032124,"MEAN_MOTION_DOT":1.4e-7,"MEAN_MOTION_DDOT":0},{"OBJECT_NAME":"ONEWEB-0342","OBJECT_ID":"2021-083Y","EPOCH":"2026-07-11T17:52:08.885856","CLASSIFICATION_TYPE":"U","MEAN_MOTION":13.2074068,"ECCENTRICITY":0.0001857,"INCLINATION":87.9154,"RA_OF_ASC_NODE":269.5484,"ARG_OF_PERICENTER":118.767,"MEAN_ANOMALY":241.365,"EPHEMERIS_TYPE":0,"NORAD_CAT_ID":49208,"ELEMENT_SET_NO":999,"REV_AT_EPOCH":24002,"BSTAR":0.015595,"MEAN_MOTION_DOT":0.00006355,"MEAN_MOTION_DDOT":0},{"OBJECT_NAME":"ONEWEB-0343","OBJECT_ID":"2021-083Z","EPOCH":"2026-07-11T19:24:19.552032","CLASSIFICATION_TYPE":"U","MEAN_MOTION":13.18687405,"ECCENTRICITY":0.0002143,"INCLINATION":87.9182,"RA_OF_ASC_NODE":330.56,"ARG_OF_PERICENTER":106.9984,"MEAN_ANOMALY":253.1383,"EPHEMERIS_TYPE":0,"NORAD_CAT_ID":49209,"ELEMENT_SET_NO":999,"REV_AT_EPOCH":23328,"BSTAR":-0.000055516,"MEAN_MOTION_DOT":-9e-8,"MEAN_MOTION_DDOT":0},{"OBJECT_NAME":"ONEWEB-0344","OBJECT_ID":"2021-083AA","EPOCH":"2026-07-11T19:13:59.337408","CLASSIFICATION_TYPE":"U","MEAN_MOTION":13.13474307,"ECCENTRICITY":0.0002292,"INCLINATION":87.8974,"RA_OF_ASC_NODE":315.3395,"ARG_OF_PERICENTER":93.6448,"MEAN_ANOMALY":266.4943,"EPHEMERIS_TYPE":0,"NORAD_CAT_ID":49210,"ELEMENT_SET_NO":999,"REV_AT_EPOCH":23412,"BSTAR":0.0018083,"MEAN_MOTION_DOT":0.00000673,"MEAN_MOTION_DDOT":0},{"OBJECT_NAME":"ONEWEB-0345","OBJECT_ID":"2021-083AB","EPOCH":"2026-07-11T20:51:30.792096","CLASSIFICATION_TYPE":"U","MEAN_MOTION":13.13469803,"ECCENTRICITY":0.0002152,"INCLINATION":87.8993,"RA_OF_ASC_NODE":315.3096,"ARG_OF_PERICENTER":100.0503,"MEAN_ANOMALY":260.0869,"EPHEMERIS_TYPE":0,"NORAD_CAT_ID":49211,"ELEMENT_SET_NO":999,"REV_AT_EPOCH":23414,"BSTAR":0.00099143,"MEAN_MOTION_DOT":0.00000375,"MEAN_MOTION_DDOT":0},{"OBJECT_NAME":"ONEWEB-0346","OBJECT_ID":"2021-083AC","EPOCH":"2026-07-11T19:19:28.111008","CLASSIFICATION_TYPE":"U","MEAN_MOTION":13.1868703,"ECCENTRICITY":0.0001668,"INCLINATION":87.9185,"RA_OF_ASC_NODE":330.5598,"ARG_OF_PERICENTER":76.0181,"MEAN_ANOMALY":284.1137,"EPHEMERIS_TYPE":0,"NORAD_CAT_ID":49212,"ELEMENT_SET_NO":999,"REV_AT_EPOCH":23322,"BSTAR":0.0000013014,"MEAN_MOTION_DOT":1.3e-7,"MEAN_MOTION_DDOT":0},{"OBJECT_NAME":"ONEWEB-0348","OBJECT_ID":"2021-083AD","EPOCH":"2026-07-11T15:48:31.928832","CLASSIFICATION_TYPE":"U","MEAN_MOTION":13.20772122,"ECCENTRICITY":0.0002235,"INCLINATION":87.9192,"RA_OF_ASC_NODE":269.5654,"ARG_OF_PERICENTER":84.0523,"MEAN_ANOMALY":276.0865,"EPHEMERIS_TYPE":0,"NORAD_CAT_ID":49213,"ELEMENT_SET_NO":999,"REV_AT_EPOCH":24004,"BSTAR":-0.000031785,"MEAN_MOTION_DOT":0,"MEAN_MOTION_DDOT":0},{"OBJECT_NAME":"ONEWEB-0350","OBJECT_ID":"2021-083AE","EPOCH":"2026-07-11T19:28:49.730880","CLASSIFICATION_TYPE":"U","MEAN_MOTION":13.1345521,"ECCENTRICITY":0.0001586,"INCLINATION":87.898,"RA_OF_ASC_NODE":315.3278,"ARG_OF_PERICENTER":124.9032,"MEAN_ANOMALY":235.2247,"EPHEMERIS_TYPE":0,"NORAD_CAT_ID":49214,"ELEMENT_SET_NO":999,"REV_AT_EPOCH":23416,"BSTAR":0.0064851,"MEAN_MOTION_DOT":0.00002381,"MEAN_MOTION_DDOT":0},{"OBJECT_NAME":"ONEWEB-0351","OBJECT_ID":"2021-083AF","EPOCH":"2026-07-11T17:27:42.797952","CLASSIFICATION_TYPE":"U","MEAN_MOTION":13.20770066,"ECCENTRICITY":0.0002675,"INCLINATION":87.919,"RA_OF_ASC_NODE":269.5501,"ARG_OF_PERICENTER":104.9866,"MEAN_ANOMALY":255.1564,"EPHEMERIS_TYPE":0,"NORAD_CAT_ID":49215,"ELEMENT_SET_NO":999,"REV_AT_EPOCH":24001,"BSTAR":-0.00010006,"MEAN_MOTION_DOT":-2.8e-7,"MEAN_MOTION_DDOT":0},{"OBJECT_NAME":"ONEWEB-0352","OBJECT_ID":"2021-083AG","EPOCH":"2026-07-11T20:36:53.140032","CLASSIFICATION_TYPE":"U","MEAN_MOTION":13.13469607,"ECCENTRICITY":0.0002213,"INCLINATION":87.8977,"RA_OF_ASC_NODE":315.3224,"ARG_OF_PERICENTER":107.5289,"MEAN_ANOMALY":252.6082,"EPHEMERIS_TYPE":0,"NORAD_CAT_ID":49216,"ELEMENT_SET_NO":999,"REV_AT_EPOCH":23426,"BSTAR":0.00057475,"MEAN_MOTION_DOT":0.00000223,"MEAN_MOTION_DDOT":0},{"OBJECT_NAME":"ONEWEB-0354","OBJECT_ID":"2021-083AH","EPOCH":"2026-07-11T18:06:42.165216","CLASSIFICATION_TYPE":"U","MEAN_MOTION":13.2077142,"ECCENTRICITY":0.0002116,"INCLINATION":87.9196,"RA_OF_ASC_NODE":269.5421,"ARG_OF_PERICENTER":96.9894,"MEAN_ANOMALY":263.148,"EPHEMERIS_TYPE":0,"NORAD_CAT_ID":49217,"ELEMENT_SET_NO":999,"REV_AT_EPOCH":24005,"BSTAR":-0.00016924,"MEAN_MOTION_DOT":-5.6e-7,"MEAN_MOTION_DDOT":0},{"OBJECT_NAME":"ONEWEB-0355","OBJECT_ID":"2021-083AJ","EPOCH":"2026-07-09T07:09:49.844448","CLASSIFICATION_TYPE":"U","MEAN_MOTION":13.13300713,"ECCENTRICITY":0.00020436,"INCLINATION":87.897,"RA_OF_ASC_NODE":315.832,"ARG_OF_PERICENTER":101.5704,"MEAN_ANOMALY":258.5654,"EPHEMERIS_TYPE":0,"NORAD_CAT_ID":49218,"ELEMENT_SET_NO":999,"REV_AT_EPOCH":23380,"BSTAR":0.00092726532,"MEAN_MOTION_DOT":0.00000351,"MEAN_MOTION_DDOT":0},{"OBJECT_NAME":"ONEWEB-0357","OBJECT_ID":"2021-083AK","EPOCH":"2026-07-11T18:01:50.288736","CLASSIFICATION_TYPE":"U","MEAN_MOTION":13.20769515,"ECCENTRICITY":0.0002265,"INCLINATION":87.9189,"RA_OF_ASC_NODE":269.5381,"ARG_OF_PERICENTER":101.2633,"MEAN_ANOMALY":258.8755,"EPHEMERIS_TYPE":0,"NORAD_CAT_ID":49219,"ELEMENT_SET_NO":999,"REV_AT_EPOCH":24005,"BSTAR":-0.00042063,"MEAN_MOTION_DOT":-0.00000158,"MEAN_MOTION_DDOT":0},{"OBJECT_NAME":"ONEWEB-0332","OBJECT_ID":"2021-090A","EPOCH":"2026-07-11T19:18:44.163648","CLASSIFICATION_TYPE":"U","MEAN_MOTION":13.14507397,"ECCENTRICITY":0.0001904,"INCLINATION":87.8974,"RA_OF_ASC_NODE":284.8018,"ARG_OF_PERICENTER":128.1345,"MEAN_ANOMALY":231.9956,"EPHEMERIS_TYPE":0,"NORAD_CAT_ID":49279,"ELEMENT_SET_NO":999,"REV_AT_EPOCH":23081,"BSTAR":-0.000088923,"MEAN_MOTION_DOT":-2e-7,"MEAN_MOTION_DDOT":0},{"OBJECT_NAME":"ONEWEB-0347","OBJECT_ID":"2021-090B","EPOCH":"2026-07-11T17:47:17.824128","CLASSIFICATION_TYPE":"U","MEAN_MOTION":13.20769369,"ECCENTRICITY":0.0001993,"INCLINATION":87.9186,"RA_OF_ASC_NODE":269.5481,"ARG_OF_PERICENTER":104.3801,"MEAN_ANOMALY":255.7554,"EPHEMERIS_TYPE":0,"NORAD_CAT_ID":49280,"ELEMENT_SET_NO":999,"REV_AT_EPOCH":23428,"BSTAR":-0.00014259,"MEAN_MOTION_DOT":-4.5e-7,"MEAN_MOTION_DDOT":0}]}
