ONEWEB-0340             
1 49206U 21083W   26192.86926131  .00000074  00000+0  15587-3 0  9990
2 49206  87.9195 330.5474 0001906  92.1726 267.9624 13.18687466233229
ONEWEB-0341             
1 49207U 21083X   26192.80012477  .00000014  00000+0  32124-5 0  9996
2 49207  87.9172 330.5622 0002238  91.0803 269.0586 13.18687393233233
ONEWEB-0342             
1 49208U 21083Y   26192.74454730  .00006355  00000+0  15595-1 0  9995
2 49208  87.9154 269.5484 0001857 118.7670 241.3650 13.20740680240028
ONEWEB-0343             
1 49209U 21083Z   26192.80855964 -.00000009  00000+0 -55516-4 0  9999
2 49209  87.9182 330.5600 0002143 106.9984 253.1383 13.18687405233281
ONEWEB-0344             
1 49210U 21083AA  26192.80138122  .00000673  00000+0  18083-2 0  9992
2 49210  87.8974 315.3395 0002291  93.6448 266.4943 13.13474307234127
ONEWEB-0345             
1 49211U 21083AB  26192.86910640  .00000375  00000+0  99143-3 0  9998
2 49211  87.8993 315.3096 0002152 100.0503 260.0869 13.13469803234142
ONEWEB-0346             
1 49212U 21083AC  26192.80518648  .00000013  00000+0  13014-5 0  9999
2 49212  87.9185 330.5598 0001668  76.0181 284.1137 13.18687031233221
ONEWEB-0348             
1 49213U 21083AD  26192.65870289  .00000000  00000+0 -31785-4 0  9996
2 49213  87.9192 269.5654 0002234  84.0523 276.0865 13.20772122240048
ONEWEB-0350             
1 49214U 21083AE  26192.81168671  .00002381  00000+0  64851-2 0  9991
2 49214  87.8980 315.3278 0001585 124.9032 235.2247 13.13455211234168
ONEWEB-0351             
1 49215U 21083AF  26192.72757869 -.00000028  00000+0 -10006-3 0  9997
2 49215  87.9190 269.5501 0002674 104.9866 255.1564 13.20770066240015
ONEWEB-0352             
1 49216U 21083AG  26192.85894838  .00000223  00000+0  57475-3 0  9996
2 49216  87.8977 315.3224 0002213 107.5289 252.6082 13.13469607234262
ONEWEB-0354             
1 49217U 21083AH  26192.75465469 -.00000056  00000+0 -16924-3 0  9990
2 49217  87.9196 269.5421 0002115  96.9894 263.1480 13.20771420240050
ONEWEB-0355             
1 49218U 21083AJ  26190.29849357  .00000351  00000+0  92727-3 0  9991
2 49218  87.8970 315.8320 0002043 101.5704 258.5654 13.13300713233807
ONEWEB-0357             
1 49219U 21083AK  26192.75127650 -.00000158  00000+0 -42063-3 0  9995
2 49219  87.9189 269.5381 0002264 101.2633 258.8755 13.20769516240054
ONEWEB-0332             
1 49279U 21090A   26192.80467783 -.00000020  00000+0 -88923-4 0  9993
2 49279  87.8974 284.8018 0001904 128.1345 231.9956 13.14507397230814
ONEWEB-0347             
1 49280U 21090B   26192.74117852 -.00000045  00000+0 -14259-3 0  9994
2 49280  87.9186 269.5481 0001992 104.3801 255.7554 13.20769369234285
